CARTOSAT-2D             
1 41948U 17008A   22363.12219442  .00004256  00000+0  20514-3 0  9994
2 41948  97.4403  60.2275 0006716  17.7863 342.3627 15.19241496325356
SENTINEL-2B             
1 42063U 17013A   22363.19351563  .00000141  00000+0  70269-4 0  9999
2 42063  98.5723  75.1391 0001241  75.8350 284.2977 14.30818911303611
ZHUHAI-1 02 (CAS-4B)    
1 42759U 17034B   22363.44831231  .00006102  00000+0  34491-3 0  9996
2 42759  43.0187 336.6452 0009095  79.5178  64.1250 15.13704558305882
NUSAT-3 (MILANESAT)     
1 42760U 17034C   22363.42102481  .00006144  00000+0  33840-3 0  9997
2 42760  43.0163 330.2398 0009539 106.6113  35.0188 15.14620103305961
ZHUHAI-1 01 (CAS-4A)    
1 42761U 17034D   22363.40580084  .00006186  00000+0  34843-3 0  9995
2 42761  43.0178 335.5216 0009332  81.7353  57.0319 15.13806611305885
CARTOSAT-2E             
1 42767U 17036C   22363.62902228 -.00162376  00000+0 -78829-2 0  9992
2 42767  97.4284  61.3076 0009393  67.6285  86.1988 15.19183455305991
FORMOSAT-5              
1 42920U 17049A   22363.46682958  .00000226  00000+0  68674-4 0  9996
2 42920  98.3391  77.5623 0011409  17.2736 342.8859 14.50812402283147
SENTINEL-5P             
1 42969U 17064A   22363.29283841  .00000080  00000+0  58830-4 0  9996
2 42969  98.7533 300.5027 0001120  89.2874 270.8431 14.19534521269968
SKYSAT-C11              
1 42987U 17068A   22362.90521478  .00011390  00000+0  29026-3 0  9998
2 42987  97.3077 120.8508 0004247  52.8541 307.3092 15.39697962288280
SKYSAT-C10              
1 42988U 17068B   22363.32858789  .00011850  00000+0  30195-3 0  9994
2 42988  97.3128 121.6431 0001116 324.7702  35.3470 15.39697557288372
SKYSAT-C9               
1 42989U 17068C   22363.31231932  .00011456  00000+0  29112-3 0  9998
2 42989  97.3059 120.6178 0001803 123.0304 237.1116 15.39789790288565
SKYSAT-C8               
1 42990U 17068D   22363.30769018  .00011785  00000+0  29979-3 0  9996
2 42990  97.3143 122.0712 0001282 187.1672 172.9556 15.39751514288399
SKYSAT-C7               
1 42991U 17068E   22363.28564326  .00011665  00000+0  29692-3 0  9998
2 42991  97.3144 122.1329 0004537  55.0731 305.0941 15.39724612288397
SKYSAT-C6               
1 42992U 17068F   22363.27715722  .00011682  00000+0  29758-3 0  9998
2 42992  97.3162 122.5573 0004445  37.1454 323.0099 15.39701617288400
CARTOSAT-2F             
1 43111U 18004A   22363.58644409  .00005491  00000+0  26390-3 0  9990
2 43111  97.4239  61.0280 0005439  76.4050  29.6081 15.19215145275178
NUSAT-4 (ADA)           
1 43195U 18015D   22363.56939910  .00019196  00000+0  54653-3 0  9996
2 43195  97.5562 148.5295 0014474  75.2336 354.1213 15.36053856273124
NUSAT-5 (MARYAM)        
1 43204U 18015K   22363.57151134  .00019598  00000+0  54841-3 0  9997
2 43204  97.5563 149.2624 0013922  74.6815 343.8298 15.36597351272762
GAOFEN 1-02             
1 43259U 18031A   22363.21263601  .00000881  00000+0  13349-3 0  9992
2 43259  97.8834  75.4196 0004837  96.1474 264.0297 14.76557320255887
GAOFEN 1-03             
1 43260U 18031B   22363.19105667  .00000862  00000+0  13084-3 0  9993
2 43260  97.8825  75.3546 0005712 158.7277 201.4196 14.76528982255870
GAOFEN 1-04             
1 43262U 18031D   22363.16644573  .00000870  00000+0  13191-3 0  9994
2 43262  97.8831  75.3833 0006229 119.7690 240.4180 14.76537757255863
SENTINEL-3B             
1 43437U 18039A   22363.41517791  .00000105  00000+0  61534-4 0  9991
2 43437  98.6231  67.9311 0001275  79.7080 280.4244 14.26737717243632
GAOFEN 5-01             
1 43461U 18043A   22363.31854199  .00000456  00000+0  10909-3 0  9996
2 43461  98.2924 302.9373 0002947  63.6037 296.5464 14.58135975247050
GAOFEN 6                
1 43484U 18048A   22363.20064342  .00000766  00000+0  11704-3 0  9995
2 43484  97.9157  79.8614 0007623 307.4815  52.5718 14.76564193246572
GAOFEN 11-1             
1 43585U 18063A   22362.43421257  .00014710  00000+0  61895-3 0  9990
2 43585  97.3010  73.6147 0011239 218.0321 270.5663 15.23425522245920
AEOLUS                  
1 43600U 18066A   22363.55060788  .00111345  00000+0  42955-3 0  9991
2 43600  96.7308   6.3761 0011153  92.9716 267.2833 15.86903919252063
ICESAT-2                
1 43613U 18070A   22363.57974966  .00010473  00000+0  38001-3 0  9991
2 43613  92.0037 310.7324 0002830   6.7225 353.4062 15.28296597239174
HYSIS                   
1 43719U 18096A   22363.45892485  .00001090  00000+0  15565-3 0  9993
2 43719  97.9362  67.1161 0000838 305.1669  54.9464 14.78704002220372
KAZSTSAT                
1 43783U 18099AB  22363.12014369  .00001214  00000+0  11807-3 0  9991
2 43783  97.6066  62.6804 0007415 350.4128   9.6950 14.94312458221877
SAUDISAT 5A             
1 43831U 18102A   22363.43408735  .00002677  00000+0  16804-3 0  9994
2 43831  97.4764  72.0759 0012667 225.3073 229.1879 15.10079740223595
SAUDISAT 5B             
1 43833U 18102C   22363.45026539  .00003061  00000+0  18914-3 0  9998
2 43833  97.4800  73.2182 0013358 231.2118 139.2234 15.10544171223653
GAOFEN 10R              
1 44622U 19066A   22363.14293941  .00001324  00000+0  17674-3 0  9996
2 44622  97.9124 299.5897 0002991  91.8155 268.3409 14.81219468174829
CARTOSAT-3              
1 44804U 19081A   22363.52982053  .00003645  00000+0  17554-3 0  9991
2 44804  97.3734  60.8317 0010945 253.1500 218.6906 15.19327822171253
GAOFEN 12-1             
1 44819U 19082A   22363.41464078  .00000393  00000+0  58183-4 0  9999
2 44819  97.8500  19.7015 0001273  82.1852 277.9510 14.80373197166781
CSG-1                   
1 44873U 19092A   22363.16140204 -.00000118  00000+0 -83034-5 0  9995
2 44873  97.8864 184.0621 0001490  75.7551 284.3963 14.82149630163942
NUSAT-7 (SOPHIE)        
1 45017U 20003B   22363.60314770  .00018966  00000+0  46994-3 0  9990
2 45017  97.1901  61.6227 0011052  24.2573 112.6621 15.40380124165203
NUSAT-8 (MARIE)         
1 45018U 20003C   22363.64200546  .00024902  00000+0  53579-3 0  9994
2 45018  97.2030  64.6853 0009699  22.8370 138.7665 15.44577312165319
NUSAT-6 (HYPATIA)       
1 46272U 20061A   22363.60978806  .00010480  00000+0  38482-3 0  9990
2 46272  97.3076  70.5628 0008028  98.5336 261.6814 15.28086422128990
NEMO-HD                 
1 46277U 20061F   22363.58504829  .00003649  00000+0  17922-3 0  9997
2 46277  97.3703  69.4689 0001255 140.7498 358.2627 15.18680327128460
NUSAT-12 (DOROTHY)      
1 46827U 20079A   22363.64835372  .00025386  00000+0  55008-3 0  9993
2 46827  97.1747  70.3522 0005739 324.4289 191.3341 15.44396640120152
NUSAT-9 (ALICE)         
1 46828U 20079B   22363.64338279  .00027374  00000+0  57736-3 0  9997
2 46828  97.1622  69.8383 0002866  24.0897 132.8260 15.45192631120200
NUSAT-11 (CORA)         
1 46829U 20079C   22363.63812870  .00026920  00000+0  56735-3 0  9995
2 46829  97.1676  70.2810 0004799 341.6718 176.6311 15.45210999120197
NUSAT-15 (KATHERINE)    
1 46830U 20079D   22363.63195060  .00026514  00000+0  56241-3 0  9993
2 46830  97.1829  71.7912 0001826 312.5407 151.5451 15.45034182120205
NUSAT-14 (HEDY)         
1 46831U 20079E   22363.69013854  .00024004  00000+0  49081-3 0  9996
2 46831  97.1797  71.8308 0005087 320.8340 190.3618 15.46120528120231
NUSAT-10 (CAROLINE)     
1 46832U 20079F   22363.57136696  .00023745  00000+0  51655-3 0  9995
2 46832  97.1799  71.1112 0005489 339.1882 126.5250 15.44295176120176
NUSAT-13 (EMMY)         
1 46833U 20079G   22363.60009300  .00023142  00000+0  50881-3 0  9992
2 46833  97.1795  71.0558 0005719 339.3827 156.5882 15.43983987120170
NUSAT-17 (MARY)         
1 46835U 20079J   22363.58826780  .00023600  00000+0  52018-3 0  9993
2 46835  97.1787  70.7557 0006326 353.5163 142.4937 15.43901240120159
NUSAT-18 (VERA)         
1 46836U 20079K   22363.62985644  .00024899  00000+0  53488-3 0  9997
2 46836  97.1806  71.3810 0006853 358.3739 138.6174 15.44650091120198
NUSAT-16 (LISE)         
1 46840U 20079P   22363.65326483  .00026374  00000+0  56161-3 0  9996
2 46840  97.1846  71.6305 0004509 357.1942 158.1340 15.44912390120193
SENTINEL-6              
1 46984U 20086A   22363.39651354 -.00000061  00000+0  00000+0 0  9995
2 46984  66.0439 244.1199 0007788 266.1557  93.8573 12.80931352 98335
GAOFEN 12-2             
1 48079U 21026A   22363.24654669  .00000434  00000+0  63767-4 0  9990
2 48079  97.9085 350.8988 0001425  73.4056 286.7309 14.80327064 94447
PLEIADES NEO 3          
1 48268U 21034A   22363.42458009 -.00000161  00000+0 -13900-4 0  9992
2 48268  97.8935  75.3545 0001284  84.7269 275.4113 14.81671107 90223
NUSAT-19 (ROSALIND)     
1 48905U 21059AC  22363.60648225  .00009455  00000+0  41344-3 0  9993
2 48905  97.5307 132.9059 0010773 109.7439  18.7177 15.22245191 83722
NUSAT-22 (SOFYA)        
1 48919U 21059AS  22363.32674074  .00019079  00000+0  52826-3 0  9998
2 48919  97.3764 134.9591 0013693  64.2726  19.4094 15.36931544 84437
NUSAT-21 (ELISA)        
1 48920U 21059AT  22363.55073126  .00023277  00000+0  56280-3 0  9999
2 48920  97.3718 135.3417 0012843  66.8427   0.6180 15.41065051 84527
NUSAT-20 (GRACE)        
1 48921U 21059AU  22363.55368149  .00021971  00000+0  56211-3 0  9995
2 48921  97.3834 135.7147 0015371  86.6711 340.7721 15.39317754 84498
PLEIADES NEO 4          
1 49070U 21073E   22363.18820222  .00000079  00000+0  16609-4 0  9995
2 49070  97.8934  75.1171 0001069  77.0462 283.0911 14.81674019 73900
LANDSAT 9               
1 49260U 21088A   22363.48053165  .00000396  00000+0  97885-4 0  9996
2 49260  98.2076  71.1022 0001382  86.2791 273.8565 14.57105601 66676
CSG-2                   
1 51444U 22008A   22363.46518392  .00000376  00000+0  53825-4 0  9996
2 51444  97.8860 184.3571 0001372  74.9796 285.1560 14.82161956 49106
INS-2TD                 
1 51658U 22013C   22363.30292710  .00007427  00000+0  37860-3 0  9999
2 51658  97.5544  10.4372 0008710 235.7806 124.2602 15.17027271 48186
GAOFEN 12-3             
1 52912U 22069A   22363.19059821  .00001419  00000+0  19182-3 0  9997
2 52912  97.9708 249.5243 0000372 328.0751  32.0452 14.80601006 27290
